YAOGAN-30 11B           
1 49028U 21065C   26068.68875565  .00004364  00000+0  32720-3 0  9992
2 49028  34.9931 159.0081 0000960 264.9738  95.0861 15.02134262253658
STARLINK-5107           
1 54826U 22177G   26068.15226731 -.00000656  00000+0 -33472-4 0  9994
2 54826  43.0068 136.3272 0001440 274.1431  85.9247 15.02534347176871
